[
  {
    "name": "STARLINK-5692",
    "noradId": "55483",
    "line1": "1 55483U 23015AL  26181.72036218 -.00003432  00000+0 -11521-3 0  9999",
    "line2": "2 55483  43.0031  61.2431 0001107 245.3549 114.7187 15.27590731187887"
  },
  {
    "name": "STARLINK-5696",
    "noradId": "55484",
    "line1": "1 55484U 23015AM  26181.68709613  .00000183  00000+0  16171-4 0  9996",
    "line2": "2 55484  43.0031  61.8464 0001250 259.7225 100.3486 15.27576510187870"
  },
  {
    "name": "STARLINK-5695",
    "noradId": "55485",
    "line1": "1 55485U 23015AN  26180.76911446  .00000314  00000+0  20952-4 0  9992",
    "line2": "2 55485  43.0007  66.9973 0001336 243.7913 116.2802 15.27577379187734"
  },
  {
    "name": "STARLINK-5704",
    "noradId": "55486",
    "line1": "1 55486U 23015AP  26181.68065950  .00001337  00000+0  58090-4 0  9995",
    "line2": "2 55486  43.0012  61.7515 0000836 246.3084 113.7679 15.27579533187871"
  },
  {
    "name": "STARLINK-5701",
    "noradId": "55487",
    "line1": "1 55487U 23015AQ  26180.94985472  .00002172  00000+0  88433-4 0  9996",
    "line2": "2 55487  43.0040  65.7789 0001684 258.4145 101.6518 15.27575292187768"
  },
  {
    "name": "STARLINK-5706",
    "noradId": "55488",
    "line1": "1 55488U 23015AR  26181.73192317  .00001763  00000+0  73555-4 0  9997",
    "line2": "2 55488  43.0038  61.3204 0001430 262.1783  97.8906 15.27591786187885"
  },
  {
    "name": "STARLINK-5371",
    "noradId": "55489",
    "line1": "1 55489U 23015AS  26180.95371883 -.00000785  00000+0 -18990-4 0  9995",
    "line2": "2 55489  43.0054  65.8108 0001562 273.0662  87.0011 15.27570523187760"
  },
  {
    "name": "STARLINK-5373",
    "noradId": "55490",
    "line1": "1 55490U 23015AT  26181.71264542  .00000479  00000+0  26918-4 0  9992",
    "line2": "2 55490  43.0056  61.1730 0001256 268.9366  91.1342 15.27577047187882"
  },
  {
    "name": "STARLINK-5364",
    "noradId": "55491",
    "line1": "1 55491U 23015AU  26181.66749677  .00000909  00000+0  42576-4 0  9990",
    "line2": "2 55491  43.0047  43.3661 0001410 266.7123  93.3568 15.27578625188087"
  },
  {
    "name": "STARLINK-5013",
    "noradId": "55492",
    "line1": "1 55492U 23015AV  26180.95242194  .00000675  00000+0  34072-4 0  9996",
    "line2": "2 55492  43.0032  65.7810 0001771 268.9277  91.1372 15.27578559187769"
  },
  {
    "name": "STARLINK-5362",
    "noradId": "55493",
    "line1": "1 55493U 23015AW  26181.71779720  .00001086  00000+0  48992-4 0  9995",
    "line2": "2 55493  43.0042  61.2190 0001445 270.8401  89.2285 15.27572554187885"
  },
  {
    "name": "STARLINK-5344",
    "noradId": "55494",
    "line1": "1 55494U 23015AX  26180.95498873 -.00000043  00000+0  79549-5 0  9994",
    "line2": "2 55494  42.9989  65.8056 0001164 248.7693 111.3034 15.27581563187766"
  },
  {
    "name": "STARLINK-5100",
    "noradId": "55495",
    "line1": "1 55495U 23015AY  26181.67391941  .00001018  00000+0  46525-4 0  9992",
    "line2": "2 55495  43.0062  43.4320 0001527 269.9395  90.1282 15.27578915188086"
  },
  {
    "name": "STARLINK-5363",
    "noradId": "55497",
    "line1": "1 55497U 23015BA  26180.95884733  .00000189  00000+0  16392-4 0  9997",
    "line2": "2 55497  43.0034  65.8338 0001373 257.0330 103.0368 15.27577343187767"
  },
  {
    "name": "STARLINK-5365",
    "noradId": "55498",
    "line1": "1 55498U 23015BB  26181.68837875  .00000065  00000+0  11885-4 0  9999",
    "line2": "2 55498  43.0020  61.8450 0001036 256.5110 103.5626 15.27576503187871"
  },
  {
    "name": "STARLINK-5366",
    "noradId": "55499",
    "line1": "1 55499U 23015BC  26181.70750627 -.00000332  00000+0 -25459-5 0  9994",
    "line2": "2 55499  43.0029  61.1342 0000960 268.4038  91.6703 15.27577412188638"
  },
  {
    "name": "STARLINK-5141",
    "noradId": "55500",
    "line1": "1 55500U 23015BD  26181.74733955  .00000310  00000+0  20796-4 0  9998",
    "line2": "2 55500  43.0022  61.4331 0001493 261.8496  98.2186 15.27576652187881"
  },
  {
    "name": "STARLINK-5367",
    "noradId": "55501",
    "line1": "1 55501U 23015BE  26180.97684153  .00000610  00000+0  31693-4 0  9999",
    "line2": "2 55501  43.0022  65.9559 0000868 262.3019  97.7734 15.27587809187761"
  },
  {
    "name": "STARLINK-5749",
    "noradId": "55569",
    "line1": "1 55569U 23020A   26180.98341212  .00000312  00000+0  20841-4 0  9998",
    "line2": "2 55569  43.0003  94.6937 0001022 259.4528 100.6209 15.27578866187111"
  },
  {
    "name": "STARLINK-5737",
    "noradId": "55570",
    "line1": "1 55570U 23020B   26181.81979675  .00000393  00000+0  23796-4 0  9994",
    "line2": "2 55570  43.0017  86.3867 0001052 244.8119 115.2623 15.27576724186218"
  },
  {
    "name": "STARLINK-5739",
    "noradId": "55571",
    "line1": "1 55571U 23020C   26181.81287801  .00000485  00000+0  27158-4 0  9996",
    "line2": "2 55571  43.0044  89.7441 0001643 276.0838  83.9827 15.27577650186176"
  },
  {
    "name": "STARLINK-5732",
    "noradId": "55572",
    "line1": "1 55572U 23020D   26181.81030853  .00000349  00000+0  22200-4 0  9992",
    "line2": "2 55572  43.0049  89.7261 0001396 265.0218  95.0474 15.27577362186179"
  },
  {
    "name": "STARLINK-5738",
    "noradId": "55573",
    "line1": "1 55573U 23020E   26181.80644839  .00001449  00000+0  62184-4 0  9994",
    "line2": "2 55573  43.0030  89.6939 0001356 250.5363 109.5342 15.27577099186179"
  },
  {
    "name": "STARLINK-5747",
    "noradId": "55574",
    "line1": "1 55574U 23020F   26180.92573555  .00000787  00000+0  38124-4 0  9994",
    "line2": "2 55574  43.0001  95.1220 0000914 253.2199 106.8553 15.27575770186032"
  },
  {
    "name": "STARLINK-5745",
    "noradId": "55575",
    "line1": "1 55575U 23020G   26181.81930308 -.00000243  00000+0  70052-6 0  9993",
    "line2": "2 55575  43.0040  89.7893 0001371 266.8027  93.2667 15.27576248186170"
  },
  {
    "name": "STARLINK-5751",
    "noradId": "55576",
    "line1": "1 55576U 23020H   26181.69853584  .00000151  00000+0  15015-4 0  9993",
    "line2": "2 55576  43.0026  61.1986 0000867 258.2362 101.8392 15.27575910186499"
  },
  {
    "name": "STARLINK-5752",
    "noradId": "55577",
    "line1": "1 55577U 23020J   26181.76596044 -.00000046  00000+0  78657-5 0  9993",
    "line2": "2 55577  43.0024  86.7563 0000931 250.3578 109.7174 15.27575755186207"
  },
  {
    "name": "STARLINK-5754",
    "noradId": "55579",
    "line1": "1 55579U 23020L   26181.81080049  .00000287  00000+0  19957-4 0  9997",
    "line2": "2 55579  43.0023  86.3134 0001207 259.0140 101.0575 15.27576868186213"
  },
  {
    "name": "STARLINK-5757",
    "noradId": "55580",
    "line1": "1 55580U 23020M   26181.70880375 -.00006805  00000+0 -23777-3 0  9995",
    "line2": "2 55580  43.0028  61.2754 0001311 281.0896  78.9808 15.27610559186496"
  },
  {
    "name": "STARLINK-5753",
    "noradId": "55581",
    "line1": "1 55581U 23020N   26181.81881032  .00000297  00000+0  20335-4 0  9994",
    "line2": "2 55581  43.0041  93.1966 0001609 280.1843  79.8827 15.27577183186130"
  }
]