OBJECT_NAME,OBJECT_ID,EPOCH,MEAN_MOTION,ECCENTRICITY,INCLINATION,RA_OF_ASC_NODE,ARG_OF_PERICENTER,MEAN_ANOMALY,EPHEMERIS_TYPE,CLASSIFICATION_TYPE,NORAD_CAT_ID,ELEMENT_SET_NO,REV_AT_EPOCH,BSTAR,MEAN_MOTION_DOT,MEAN_MOTION_DDOT
STARLINK-5692,2023-015AL,2026-06-30T17:17:19.292352,15.27590731,.0001107,43.0031,61.2431,245.3549,114.7187,0,U,55483,999,18788,-.11521E-3,-.3432E-4,0
STARLINK-5696,2023-015AM,2026-06-30T16:29:25.105632,15.27576510,.000125,43.0031,61.8464,259.7225,100.3486,0,U,55484,999,18787,.16171E-4,.183E-5,0
STARLINK-5695,2023-015AN,2026-06-29T18:27:31.489344,15.27577379,.00013368,43.0007,66.9973,243.7913,116.2802,0,U,55485,999,18773,.20952386E-4,.314E-5,0
STARLINK-5704,2023-015AP,2026-06-30T16:20:08.980800,15.27579533,.0000836,43.0012,61.7515,246.3084,113.7679,0,U,55486,999,18787,.5809E-4,.1337E-4,0
STARLINK-5701,2023-015AQ,2026-06-29T22:47:47.447808,15.27575292,.0001684,43.0040,65.7789,258.4145,101.6518,0,U,55487,999,18776,.88433403E-4,.2172E-4,0
STARLINK-5706,2023-015AR,2026-06-30T17:33:58.161888,15.27591786,.000143,43.0038,61.3204,262.1783,97.8906,0,U,55488,999,18788,.73555E-4,.1763E-4,0
STARLINK-5371,2023-015AS,2026-06-29T22:53:21.306912,15.27570523,.00015623,43.0054,65.8108,273.0662,87.0011,0,U,55489,999,18776,-.18990384E-4,-.785E-5,0
STARLINK-5373,2023-015AT,2026-06-30T17:06:12.564288,15.27577047,.0001256,43.0056,61.1730,268.9366,91.1342,0,U,55490,999,18788,.26918E-4,.479E-5,0
STARLINK-5364,2023-015AU,2026-06-30T16:01:11.720928,15.27578625,.000141,43.0047,43.3661,266.7123,93.3568,0,U,55491,999,18808,.42576E-4,.909E-5,0
STARLINK-5013,2023-015AV,2026-06-29T22:51:29.255616,15.27578559,.00017714,43.0032,65.7810,268.9277,91.1372,0,U,55492,999,18776,.34071519E-4,.675E-5,0
STARLINK-5362,2023-015AW,2026-06-30T17:13:37.678080,15.27572554,.0001445,43.0042,61.2190,270.8401,89.2285,0,U,55493,999,18788,.48992E-4,.1086E-4,0
STARLINK-5344,2023-015AX,2026-06-29T22:55:11.026272,15.27581563,.00011648,42.9989,65.8056,248.7693,111.3034,0,U,55494,999,18776,.7954928E-5,-.43E-6,0
STARLINK-5100,2023-015AY,2026-06-30T16:10:26.637024,15.27578915,.0001527,43.0062,43.4320,269.9395,90.1282,0,U,55495,999,18808,.46525E-4,.1018E-4,0
STARLINK-5363,2023-015BA,2026-06-29T23:00:44.409312,15.27577343,.00013739,43.0034,65.8338,257.0330,103.0368,0,U,55497,999,18776,.16392275E-4,.189E-5,0
STARLINK-5365,2023-015BB,2026-06-30T16:31:15.924000,15.27576503,.0001036,43.0020,61.8450,256.5110,103.5626,0,U,55498,999,18787,.11885E-4,.65E-6,0
STARLINK-5366,2023-015BC,2026-06-30T16:58:48.541728,15.27577412,.000096,43.0029,61.1342,268.4038,91.6703,0,U,55499,999,18863,-.25459E-5,-.332E-5,0
STARLINK-5141,2023-015BD,2026-06-30T17:56:10.137120,15.27576652,.0001493,43.0022,61.4331,261.8496,98.2186,0,U,55500,999,18788,.20796E-4,.31E-5,0
STARLINK-5367,2023-015BE,2026-06-29T23:26:39.108192,15.27587809,.00008685,43.0022,65.9559,262.3019,97.7734,0,U,55501,999,18776,.31692938E-4,.61E-5,0
STARLINK-5749,2023-020A,2026-06-29T23:36:06.807168,15.27578866,.0001022,43.0003,94.6937,259.4528,100.6209,0,U,55569,999,18711,.2084134E-4,.312E-5,0
STARLINK-5737,2023-020B,2026-06-30T19:40:30.439200,15.27576724,.0001052,43.0017,86.3867,244.8119,115.2623,0,U,55570,999,18621,.23796E-4,.393E-5,0
STARLINK-5739,2023-020C,2026-06-30T19:30:32.660064,15.27577650,.0001643,43.0044,89.7441,276.0838,83.9827,0,U,55571,999,18617,.27158E-4,.485E-5,0
STARLINK-5732,2023-020D,2026-06-30T19:26:50.656992,15.27577362,.0001396,43.0049,89.7261,265.0218,95.0474,0,U,55572,999,18617,.222E-4,.349E-5,0
STARLINK-5738,2023-020E,2026-06-30T19:21:17.140896,15.27577099,.0001356,43.0030,89.6939,250.5363,109.5342,0,U,55573,999,18617,.62184E-4,.1449E-4,0
STARLINK-5747,2023-020F,2026-06-29T22:13:03.551520,15.27575770,.00009145,43.0001,95.1220,253.2199,106.8553,0,U,55574,999,18603,.38123697E-4,.787E-5,0
STARLINK-5745,2023-020G,2026-06-30T19:39:47.786112,15.27576248,.0001371,43.0040,89.7893,266.8027,93.2667,0,U,55575,999,18617,.70052E-6,-.243E-5,0
STARLINK-5751,2023-020H,2026-06-30T16:45:53.496576,15.27575910,.0000867,43.0026,61.1986,258.2362,101.8392,0,U,55576,999,18649,.15015E-4,.151E-5,0
STARLINK-5752,2023-020J,2026-06-30T18:22:58.982016,15.27575755,.0000931,43.0024,86.7563,250.3578,109.7174,0,U,55577,999,18620,.78657E-5,-.46E-6,0
STARLINK-5754,2023-020L,2026-06-30T19:27:33.162336,15.27576868,.0001207,43.0023,86.3134,259.0140,101.0575,0,U,55579,999,18621,.19957E-4,.287E-5,0
STARLINK-5757,2023-020M,2026-06-30T17:00:40.644000,15.27610559,.0001311,43.0028,61.2754,281.0896,78.9808,0,U,55580,999,18649,-.23777E-3,-.6805E-4,0
STARLINK-5753,2023-020N,2026-06-30T19:39:05.211648,15.27577183,.0001609,43.0041,93.1966,280.1843,79.8827,0,U,55581,999,18613,.20335E-4,.297E-5,0
